*******************************************************************************
Ephemeris / WWW_USER Fri Mar  7 11:07:45 2025 Pasadena, USA      / Horizons    
*******************************************************************************
Target body name: (2018 US2)                      {source: JPL#14}
Center body name: Earth (399)                     {source: DE441}
Center-site name: Mauna Kea
*******************************************************************************
Start time      : A.D. 2018-Nov-08 03:54:00.0000 UT      
Stop  time      : A.D. 2018-Nov-08 16:17:00.0000 UT      
Step-size       : 1 minutes
*******************************************************************************
Target pole/equ : undefined
Target radii    : undefined                                                    
Center geodetic : 204.5278, 19.8260847, 4.21024   {E-lon(deg),Lat(deg),Alt(km)}
Center cylindric: 204.5278, 6006.35451, 2151.0229 {E-lon(deg),Dxy(km),Dz(km)}
Center pole/equ : ITRF93                          {East-longitude positive}
Center radii    : 6378.137, 6378.137, 6356.752 km {Equator_a, b, pole_c}       
Target primary  : Sun
Vis. interferer : MOON (R_eq= 1737.400) km        {source: DE441}
Rel. light bend : Sun                             {source: DE441}
Rel. lght bnd GM: 1.3271E+11 km^3/s^2                                          
Small-body perts: Yes                             {source: SB441-N16}
Atmos refraction: NO (AIRLESS)
RA format       : HMS
Time format     : CAL 
Calendar mode   : Mixed Julian/Gregorian
RTS-only print  : NO       
EOP file        : eop.250306.p250602                                           
EOP coverage    : DATA-BASED 1962-JAN-20 TO 2025-MAR-06. PREDICTS-> 2025-JUN-01
Units conversion: 1 au= 149597870.700 km, c= 299792.458 km/s, 1 day= 86400.0 s 
Table cut-offs 1: Elevation (-90.0deg=NO ),Airmass (>38.000=NO), Daylight (YES)
Table cut-offs 2: Solar elongation (  0.0,180.0=NO ),Local Hour Angle( 0.0=NO )
Table cut-offs 3: RA/DEC angular rate (     0.0=NO )                           
*******************************************************************************
Initial IAU76/J2000 heliocentric ecliptic osculating elements (au, days, deg.):
  EPOCH=  2458424.5 ! 2018-Nov-02.00 (TDB)         Residual RMS= .2503         
   EC= .6580934192644969   QR= 1.019516546973241   TP= 2458405.4003266119      
   OM= 225.9089147719754   W=  151.3321843630243   IN= 7.044798776353047       
  Equivalent ICRF heliocentric cartesian coordinates (au, au/d):
   X= 8.026033061055595E-01  Y= 6.200562709856074E-01  Z= 2.826199844552283E-01
  VX=-1.102263624249032E-02 VY= 1.780430100977025E-02 VZ= 4.937770740848229E-03
Asteroid physical parameters (km, seconds, rotational period in hours):        
   GM= n.a.                RAD= n.a.               ROTPER= n.a.                
   H= 24.88                G= .150                 B-V= n.a.                   
                           ALBEDO= n.a.            STYP= n.a.                  
*******************************************************************************
 Date__(UT)__HR:MN     R.A._________(ICRF)_________DEC
******************************************************
$$SOE
 2018-Nov-08 03:54 Cm  04 22 57.368645 +19 36 47.29407
 2018-Nov-08 03:55 Cm  04 22 57.605442 +19 36 44.16646
 2018-Nov-08 03:56 Cm  04 22 57.842108 +19 36 41.03930
 2018-Nov-08 03:57 Cm  04 22 58.078642 +19 36 37.91260
 2018-Nov-08 03:58 Cm  04 22 58.315044 +19 36 34.78633
 2018-Nov-08 03:59 Cm  04 22 58.551313 +19 36 31.66051
 2018-Nov-08 04:00 Cm  04 22 58.787450 +19 36 28.53513
 2018-Nov-08 04:01 Cm  04 22 59.023455 +19 36 25.41019
 2018-Nov-08 04:02 Cm  04 22 59.259326 +19 36 22.28569
 2018-Nov-08 04:03 Cm  04 22 59.495065 +19 36 19.16161
 2018-Nov-08 04:04 Cm  04 22 59.730670 +19 36 16.03797
 2018-Nov-08 04:05 Cm  04 22 59.966142 +19 36 12.91476
 2018-Nov-08 04:06 Cm  04 23 00.201480 +19 36 09.79197
 2018-Nov-08 04:07 Cm  04 23 00.436685 +19 36 06.66961
 2018-Nov-08 04:08 Nm  04 23 00.671755 +19 36 03.54767
 2018-Nov-08 04:09 Nm  04 23 00.906691 +19 36 00.42614
 2018-Nov-08 04:10 Nm  04 23 01.141493 +19 35 57.30504
 2018-Nov-08 04:11 Nm  04 23 01.376160 +19 35 54.18435
 2018-Nov-08 04:12 Nm  04 23 01.610693 +19 35 51.06407
 2018-Nov-08 04:13 Nm  04 23 01.845090 +19 35 47.94420
 2018-Nov-08 04:14 Nm  04 23 02.079353 +19 35 44.82473
 2018-Nov-08 04:15 Nm  04 23 02.313480 +19 35 41.70567
 2018-Nov-08 04:16 Nm  04 23 02.547472 +19 35 38.58702
 2018-Nov-08 04:17 Nm  04 23 02.781329 +19 35 35.46876
 2018-Nov-08 04:18 Nm  04 23 03.015049 +19 35 32.35090
 2018-Nov-08 04:19 Nm  04 23 03.248634 +19 35 29.23344
 2018-Nov-08 04:20 Nm  04 23 03.482082 +19 35 26.11637
 2018-Nov-08 04:21 Nm  04 23 03.715395 +19 35 22.99969
 2018-Nov-08 04:22 Nm  04 23 03.948571 +19 35 19.88339
 2018-Nov-08 04:23 Nm  04 23 04.181610 +19 35 16.76749
 2018-Nov-08 04:24 Nm  04 23 04.414513 +19 35 13.65196
 2018-Nov-08 04:25 N   04 23 04.647279 +19 35 10.53682
 2018-Nov-08 04:26 N   04 23 04.879908 +19 35 07.42205
 2018-Nov-08 04:27 N   04 23 05.112400 +19 35 04.30766
 2018-Nov-08 04:28 N   04 23 05.344755 +19 35 01.19364
 2018-Nov-08 04:29 N   04 23 05.576972 +19 34 58.08000
 2018-Nov-08 04:30 N   04 23 05.809052 +19 34 54.96672
 2018-Nov-08 04:31 N   04 23 06.040994 +19 34 51.85380
 2018-Nov-08 04:32 N   04 23 06.272798 +19 34 48.74126
 2018-Nov-08 04:33 N   04 23 06.504464 +19 34 45.62907
 2018-Nov-08 04:34 A   04 23 06.735992 +19 34 42.51724
 2018-Nov-08 04:35 A   04 23 06.967382 +19 34 39.40576
 2018-Nov-08 04:36 A   04 23 07.198634 +19 34 36.29464
 2018-Nov-08 04:37 A   04 23 07.429747 +19 34 33.18387
 2018-Nov-08 04:38 A   04 23 07.660722 +19 34 30.07345
 2018-Nov-08 04:39 A   04 23 07.891558 +19 34 26.96338
 2018-Nov-08 04:40 A   04 23 08.122255 +19 34 23.85365
 2018-Nov-08 04:41 A   04 23 08.352814 +19 34 20.74426
 2018-Nov-08 04:42 A   04 23 08.583233 +19 34 17.63521
 2018-Nov-08 04:43 A   04 23 08.813513 +19 34 14.52650
 2018-Nov-08 04:44 A   04 23 09.043654 +19 34 11.41812
 2018-Nov-08 04:45 A   04 23 09.273656 +19 34 08.31007
 2018-Nov-08 04:46 A   04 23 09.503518 +19 34 05.20235
 2018-Nov-08 04:47 A   04 23 09.733240 +19 34 02.09495
 2018-Nov-08 04:48 A   04 23 09.962823 +19 33 58.98788
 2018-Nov-08 04:49 A   04 23 10.192267 +19 33 55.88114
 2018-Nov-08 04:50 A   04 23 10.421570 +19 33 52.77471
 2018-Nov-08 04:51 A   04 23 10.650734 +19 33 49.66859
 2018-Nov-08 04:52 A   04 23 10.879757 +19 33 46.56280
 2018-Nov-08 04:53 A   04 23 11.108641 +19 33 43.45731
 2018-Nov-08 04:54 A   04 23 11.337384 +19 33 40.35213
 2018-Nov-08 04:55 A   04 23 11.565987 +19 33 37.24726
 2018-Nov-08 04:56 Ar  04 23 11.794450 +19 33 34.14269
 2018-Nov-08 04:57 A   04 23 12.022772 +19 33 31.03843
 2018-Nov-08 04:58 A   04 23 12.250954 +19 33 27.93446
 2018-Nov-08 04:59 A   04 23 12.478995 +19 33 24.83079
 2018-Nov-08 05:00 A   04 23 12.706895 +19 33 21.72741
 2018-Nov-08 05:01     04 23 12.934655 +19 33 18.62433
 2018-Nov-08 05:02     04 23 13.162275 +19 33 15.52153
 2018-Nov-08 05:03     04 23 13.389753 +19 33 12.41902
 2018-Nov-08 05:04     04 23 13.617090 +19 33 09.31680
 2018-Nov-08 05:05     04 23 13.844287 +19 33 06.21485
 2018-Nov-08 05:06     04 23 14.071342 +19 33 03.11319
 2018-Nov-08 05:07     04 23 14.298257 +19 33 00.01180
 2018-Nov-08 05:08     04 23 14.525030 +19 32 56.91069
 2018-Nov-08 05:09     04 23 14.751662 +19 32 53.80985
 2018-Nov-08 05:10     04 23 14.978153 +19 32 50.70927
 2018-Nov-08 05:11     04 23 15.204503 +19 32 47.60897
 2018-Nov-08 05:12     04 23 15.430711 +19 32 44.50892
 2018-Nov-08 05:13     04 23 15.656779 +19 32 41.40914
 2018-Nov-08 05:14     04 23 15.882704 +19 32 38.30962
 2018-Nov-08 05:15     04 23 16.108489 +19 32 35.21036
 2018-Nov-08 05:16     04 23 16.334131 +19 32 32.11134
 2018-Nov-08 05:17     04 23 16.559633 +19 32 29.01258
 2018-Nov-08 05:18     04 23 16.784993 +19 32 25.91407
 2018-Nov-08 05:19     04 23 17.010211 +19 32 22.81581
 2018-Nov-08 05:20     04 23 17.235288 +19 32 19.71779
 2018-Nov-08 05:21     04 23 17.460223 +19 32 16.62001
 2018-Nov-08 05:22     04 23 17.685017 +19 32 13.52247
 2018-Nov-08 05:23     04 23 17.909669 +19 32 10.42517
 2018-Nov-08 05:24     04 23 18.134179 +19 32 07.32810
 2018-Nov-08 05:25     04 23 18.358548 +19 32 04.23126
 2018-Nov-08 05:26     04 23 18.582775 +19 32 01.13465
 2018-Nov-08 05:27     04 23 18.806861 +19 31 58.03827
 2018-Nov-08 05:28     04 23 19.030805 +19 31 54.94211
 2018-Nov-08 05:29     04 23 19.254607 +19 31 51.84617
 2018-Nov-08 05:30     04 23 19.478267 +19 31 48.75046
 2018-Nov-08 05:31     04 23 19.701786 +19 31 45.65495
 2018-Nov-08 05:32     04 23 19.925163 +19 31 42.55967
 2018-Nov-08 05:33     04 23 20.148398 +19 31 39.46459
 2018-Nov-08 05:34     04 23 20.371492 +19 31 36.36972
 2018-Nov-08 05:35     04 23 20.594444 +19 31 33.27506
 2018-Nov-08 05:36     04 23 20.817255 +19 31 30.18061
 2018-Nov-08 05:37     04 23 21.039924 +19 31 27.08635
 2018-Nov-08 05:38     04 23 21.262451 +19 31 23.99229
 2018-Nov-08 05:39     04 23 21.484837 +19 31 20.89843
 2018-Nov-08 05:40     04 23 21.707081 +19 31 17.80477
 2018-Nov-08 05:41     04 23 21.929183 +19 31 14.71129
 2018-Nov-08 05:42     04 23 22.151144 +19 31 11.61801
 2018-Nov-08 05:43     04 23 22.372964 +19 31 08.52491
 2018-Nov-08 05:44     04 23 22.594642 +19 31 05.43199
 2018-Nov-08 05:45     04 23 22.816179 +19 31 02.33926
 2018-Nov-08 05:46     04 23 23.037574 +19 30 59.24670
 2018-Nov-08 05:47     04 23 23.258828 +19 30 56.15433
 2018-Nov-08 05:48     04 23 23.479941 +19 30 53.06212
 2018-Nov-08 05:49     04 23 23.700912 +19 30 49.97009
 2018-Nov-08 05:50     04 23 23.921742 +19 30 46.87822
 2018-Nov-08 05:51     04 23 24.142431 +19 30 43.78653
 2018-Nov-08 05:52     04 23 24.362979 +19 30 40.69499
 2018-Nov-08 05:53     04 23 24.583386 +19 30 37.60362
 2018-Nov-08 05:54     04 23 24.803652 +19 30 34.51241
 2018-Nov-08 05:55     04 23 25.023776 +19 30 31.42135
 2018-Nov-08 05:56     04 23 25.243760 +19 30 28.33045
